NORAD_CAT_ID,OBJECT_NAME,OBJECT_TYPE,EPOCH,MEAN_MOTION,ECCENTRICITY,INCLINATION,RA_OF_ASC_NODE,ARG_OF_PERICENTER,MEAN_ANOMALY,BSTAR,MEAN_MOTION_DOT,MEAN_MOTION_DDOT,TLE_LINE0,TLE_LINE1,TLE_LINE2,SEMIMAJOR_AXIS,PERIOD,APOGEE,PERIGEE,DECAYED
55428.0,STARLINK-5064,PAYLOAD,2024-01-30 22:08:24,14.98332003,0.0002813,69.9996,222.9767,276.3945,83.6893,0.00013437,1.511e-05,0.0,0 STARLINK-5064,1 55428U 23014AP  24030.92250988  .00001511  00000-0  13437-3 0  9995,2 55428  69.9996 222.9767 0002813 276.3945  83.6893 14.98332003 56404,6950.187,96.107,574.007,570.097,0.0
55428.0,STARLINK-5064,PAYLOAD,2024-01-31 12:33:34,14.98369564,0.0002886,69.9996,221.4611,274.4929,85.59,0.00031489,3.67e-05,0.0,0 STARLINK-5064,1 55428U 23014AP  24031.52331221  .00003670  00000-0  31489-3 0  9997,2 55428  69.9996 221.4611 0002886 274.4929  85.5900 14.98369564 55554,6950.071,96.104,573.941,569.93,0.0
55428.0,STARLINK-5064,PAYLOAD,2024-01-31 22:10:23,14.98349459,0.0003264,69.9998,220.4515,279.1332,80.9457,7.6431e-05,8.19e-06,0.0,0 STARLINK-5064,1 55428U 23014AP  24031.92388400  .00000819  00000-0  76431-4 0  9991,2 55428  69.9998 220.4515 0003264 279.1332  80.9457 14.98349459 56557,6950.133,96.106,574.266,569.729,0.0
55428.0,STARLINK-5064,PAYLOAD,2024-02-01 10:59:28,14.98339525,0.0002377,69.9999,219.1052,271.811,88.2777,-4.0611e-05,-5.78e-06,0.0,0 STARLINK-5064,1 55428U 23014AP  24032.45796984 -.00000578  00000-0 -40611-4 0  9995,2 55428  69.9999 219.1052 0002377 271.8110  88.2777 14.98339525 55699,6950.163,96.106,573.68,570.376,0.0
55428.0,STARLINK-5064,PAYLOAD,2024-02-01 12:35:37,14.98325986,0.000303,70.0013,218.9387,273.7838,86.2975,-0.00013058,-1.651e-05,0.0,0 STARLINK-5064,1 55428U 23014AP  24032.52474020 -.00001651  00000-0 -13058-3 0  9994,2 55428  70.0013 218.9387 0003030 273.7838  86.2975 14.98325986 56642,6950.205,96.107,574.176,569.964,0.0
55428.0,STARLINK-5064,PAYLOAD,2024-02-01 22:12:25,14.98331527,0.0002808,70.002,217.9283,269.1992,90.8846,-5.1755e-05,-7.1e-06,0.0,0 STARLINK-5064,1 55428U 23014AP  24032.92529338 -.00000710  00000-0 -51755-4 0  9993,2 55428  70.0020 217.9283 0002808 269.1992  90.8846 14.98331527 56709,6950.188,96.107,574.005,570.102,0.0
55428.0,STARLINK-5064,PAYLOAD,2024-02-02 14:13:45,14.98331606,0.000286,70.0008,216.243,274.9857,85.0975,-8.8388e-05,-1.147e-05,0.0,0 STARLINK-5064,1 55428U 23014AP  24033.59288823 -.00001147  00000-0 -88388-4 0  9995,2 55428  70.0008 216.2430 0002860 274.9857  85.0975 14.98331606 56801,6950.188,96.107,574.041,570.065,0.0
55428.0,STARLINK-5064,PAYLOAD,2024-02-02 22:14:26,14.9832733,0.0002946,70.0006,215.4016,274.921,85.1612,-0.0001288,-1.629e-05,0.0,0 STARLINK-5064,1 55428U 23014AP  24033.92669227 -.00001629  00000-0 -12880-3 0  9991,2 55428  70.0006 215.4016 0002946 274.9210  85.1612 14.98327330 56851,6950.201,96.107,574.114,570.019,0.0
55428.0,STARLINK-5064,PAYLOAD,2024-02-03 12:39:38,14.98320957,0.0003163,69.9999,213.8869,270.2488,89.8308,-9.7304e-07,-1.05e-06,0.0,0 STARLINK-5064,1 55428U 23014AP  24034.52753412 -.00000105  00000-0 -97304-6 0  9993,2 55428  69.9999 213.8869 0003163 270.2488  89.8308 14.98320957 56946,6950.221,96.108,574.284,569.888,0.0
55428.0,STARLINK-5064,PAYLOAD,2024-02-03 20:40:19,14.98320866,0.0003168,70.0,213.0455,270.3869,89.6927,-9.9939e-07,-1.05e-06,0.0,0 STARLINK-5064,1 55428U 23014AP  24034.86133611 -.00000105  00000-0 -99939-6 0  9999,2 55428  70.0000 213.0455 0003168 270.3869  89.6927 14.98320866 56993,6950.221,96.108,574.288,569.884,0.0
55428.0,STARLINK-5064,PAYLOAD,2024-02-04 12:41:39,14.98325492,0.0003261,69.9998,211.3623,270.7384,89.3401,3.3933e-05,3.12e-06,0.0,0 STARLINK-5064,1 55428U 23014AP  24035.52893509  .00000312  00000-0  33933-4 0  9990,2 55428  69.9998 211.3623 0003261 270.7384  89.3401 14.98325492 56156,6950.207,96.107,574.338,569.805,0.0
55428.0,STARLINK-5064,PAYLOAD,2024-02-04 14:17:48,14.98325473,0.0003264,69.9998,211.1939,270.6928,89.3857,3.3133e-05,3.02e-06,0.0,0 STARLINK-5064,1 55428U 23014AP  24035.59569531  .00000302  00000-0  33133-4 0  9993,2 55428  69.9998 211.1939 0003264 270.6928  89.3857 14.98325473 57100,6950.207,96.107,574.34,569.803,0.0
55428.0,STARLINK-5064,PAYLOAD,2024-02-04 20:42:20,14.98326585,0.0003236,70.0,210.5208,271.0569,89.022,4.6148e-05,4.58e-06,0.0,0 STARLINK-5064,1 55428U 23014AP  24035.86273500  .00000458  00000-0  46148-4 0  9993,2 55428  70.0000 210.5208 0003236 271.0569  89.0220 14.98326585 57144,6950.203,96.107,574.318,569.819,0.0
55428.0,STARLINK-5064,PAYLOAD,2024-02-05 14:19:48,14.98330425,0.0003299,70.0,208.6695,270.4732,89.6049,8.7088e-05,9.46e-06,0.0,0 STARLINK-5064,1 55428U 23014AP  24036.59709211  .00000946  00000-0  87088-4 0  9997,2 55428  70.0000 208.6695 0003299 270.4732  89.6049 14.98330425 57251,6950.192,96.107,574.349,569.764,0.0
55428.0,STARLINK-5064,PAYLOAD,2024-02-05 19:08:12,14.98331473,0.0003292,70.0001,208.1646,270.4956,89.5826,9.3919e-05,1.028e-05,0.0,0 STARLINK-5064,1 55428U 23014AP  24036.79737112  .00001028  00000-0  93919-4 0  9992,2 55428  70.0001 208.1646 0003292 270.4956  89.5826 14.98331473 56349,6950.188,96.107,574.341,569.765,0.0
55428.0,STARLINK-5064,PAYLOAD,2024-02-05 20:44:20,14.98332129,0.000329,70.0001,207.9963,270.4178,89.6604,9.9113e-05,1.09e-05,0.0,0 STARLINK-5064,1 55428U 23014AP  24036.86413046  .00001090  00000-0  99113-4 0  9998,2 55428  70.0001 207.9963 0003290 270.4178  89.6604 14.98332129 57291,6950.186,96.107,574.338,569.765,0.0
55428.0,STARLINK-5064,PAYLOAD,2024-02-06 14:21:49,14.98329827,0.0003233,70.0005,206.1455,269.5667,90.5122,1.5409e-06,-7.5e-07,0.0,0 STARLINK-5064,1 55428U 23014AP  24037.59849428 -.00000075  00000-0  15409-5 0  9996,2 55428  70.0005 206.1455 0003233 269.5667  90.5122 14.98329827 57401,6950.193,96.107,574.305,569.811,0.0
55428.0,STARLINK-5064,PAYLOAD,2024-02-06 19:10:13,14.98331374,0.0003226,70.0006,205.6409,269.3512,90.7277,1.173e-05,4.7e-07,0.0,0 STARLINK-5064,1 55428U 23014AP  24037.79877284  .00000047  00000-0  11730-4 0  9999,2 55428  70.0006 205.6409 0003226 269.3512  90.7277 14.98331374 56495,6950.189,96.107,574.296,569.812,0.0
55428.0,STARLINK-5064,PAYLOAD,2024-02-06 20:46:21,14.98331807,0.0003225,70.0006,205.4727,269.2804,90.7986,1.5902e-05,9.7e-07,0.0,0 STARLINK-5064,1 55428U 23014AP  24037.86553238  .00000097  00000-0  15902-4 0  9997,2 55428  70.0006 205.4727 0003225 269.2804  90.7986 14.98331807 57442,6950.187,96.107,574.294,569.811,0.0
55428.0,STARLINK-5064,PAYLOAD,2024-02-07 14:23:50,14.98332946,0.0003174,70.0008,203.6218,269.2845,90.795,-3.7892e-05,-5.45e-06,0.0,0 STARLINK-5064,1 55428U 23014AP  24038.59989195 -.00000545  00000-0 -37892-4 0  9995,2 55428  70.0008 203.6218 0003174 269.2845  90.7950 14.98332946 57555,6950.184,96.107,574.255,569.843,0.0
55428.0,STARLINK-5064,PAYLOAD,2024-02-07 19:12:14,14.98333436,0.000309,70.001,203.1172,266.2909,93.7897,-1.8881e-05,-3.18e-06,0.0,0 STARLINK-5064,1 55428U 23014AP  24038.80017054 -.00000318  00000-0 -18881-4 0  9990,2 55428  70.0010 203.1172 0003090 266.2909  93.7897 14.98333436 56644,6950.182,96.107,574.195,569.9,0.0
55428.0,STARLINK-5064,PAYLOAD,2024-02-07 20:48:22,14.98333444,0.0003095,70.001,202.9488,266.4564,93.6241,-1.867e-05,-3.16e-06,0.0,0 STARLINK-5064,1 55428U 23014AP  24038.86693037 -.00000316  00000-0 -18670-4 0  9991,2 55428  70.0010 202.9488 0003095 266.4564  93.6241 14.98333444 57591,6950.182,96.107,574.198,569.896,0.0
55428.0,STARLINK-5064,PAYLOAD,2024-02-08 11:13:35,14.9832501,0.0003005,70.0013,201.4345,265.5149,94.5667,-4.5517e-05,-6.36e-06,0.0,0 STARLINK-5064,1 55428U 23014AP  24039.46777683 -.00000636  00000-0 -45517-4 0  9993,2 55428  70.0013 201.4345 0003005 265.5149  94.5667 14.98325010 56748,6950.208,96.107,574.162,569.985,0.0
55428.0,STARLINK-5064,PAYLOAD,2024-02-08 14:25:52,14.98321968,0.0003049,70.001,201.0983,264.7681,95.313,-8.2398e-05,-1.076e-05,0.0,0 STARLINK-5064,1 55428U 23014AP  24039.60130008 -.00001076  00000-0 -82398-4 0  9990,2 55428  70.0010 201.0983 0003049 264.7681  95.3130 14.98321968 57708,6950.218,96.108,574.202,569.964,0.0
55428.0,STARLINK-5064,PAYLOAD,2024-02-08 19:14:17,14.98317215,0.000313,70.0009,200.5929,266.0998,93.9803,-0.00013317,-1.681e-05,0.0,0 STARLINK-5064,1 55428U 23014AP  24039.80158575 -.00001681  00000-0 -13317-3 0  9997,2 55428  70.0009 200.5929 0003130 266.0998  93.9803 14.98317215 56796,6950.232,96.108,574.273,569.922,0.0
55428.0,STARLINK-5064,PAYLOAD,2024-02-08 20:50:25,14.98317628,0.0003142,70.0008,200.4239,267.2461,92.8338,-0.00012549,-1.59e-05,0.0,0 STARLINK-5064,1 55428U 23014AP  24039.86834581 -.00001590  00000-0 -12549-3 0  9996,2 55428  70.0008 200.4239 0003142 267.2461  92.8338 14.98317628 57744,6950.231,96.108,574.28,569.912,0.0
55428.0,STARLINK-5064,PAYLOAD,2024-02-09 11:15:37,14.98323716,0.0003542,69.9996,198.9077,271.691,88.3844,-5.4591e-05,-7.44e-06,0.0,0 STARLINK-5064,1 55428U 23014AP  24040.46918249 -.00000744  00000-0 -54591-4 0  9992,2 55428  69.9996 198.9077 0003542 271.6910  88.3844 14.98323716 56892,6950.212,96.107,574.539,569.616,0.0
55428.0,STARLINK-5064,PAYLOAD,2024-02-09 14:27:53,14.98326958,0.0003273,70.0004,198.5713,269.4735,90.6049,-2.0057e-05,-3.32e-06,0.0,0 STARLINK-5064,1 55428U 23014AP  24040.60270004 -.00000332  00000-0 -20057-4 0  9991,2 55428  70.0004 198.5713 0003273 269.4735  90.6049 14.98326958 57850,6950.202,96.107,574.342,569.792,0.0
55428.0,STARLINK-5064,PAYLOAD,2024-02-09 19:16:17,14.98330847,0.0003226,70.0004,198.0665,269.3792,90.6998,2.6707e-05,2.26e-06,0.0,0 STARLINK-5064,1 55428U 23014AP  24040.80297660  .00000226  00000-0  26707-4 0  9998,2 55428  70.0004 198.0665 0003226 269.3792  90.6998 14.98330847 56945,6950.19,96.107,574.297,569.813,0.0
55428.0,STARLINK-5064,PAYLOAD,2024-02-10 14:29:53,14.98329243,0.0003258,70.0005,196.0464,272.1617,87.9169,0.00019918,2.284e-05,0.0,0 STARLINK-5064,1 55428U 23014AP  24041.60409261  .00002284  00000-0  19918-3 0  9990,2 55428  70.0005 196.0464 0003258 272.1617  87.9169 14.98329243 58000,6950.195,96.107,574.325,569.796,0.0
